{"type": "FeatureCollection", "features": [ {"type": "Feature", "properties": {"norad_id": 66052, "name": "HRC MONOBLOCK CAMERA", "group": "stations", "lat": 9.462197920185657, "lon": 157.85978386461164, "alt_km": 407.07697947259294, "timestamp": "2025-12-10T23:33:11.640651+00:00", "meta": {"OBJECT_NAME": "HRC MONOBLOCK CAMERA", "OBJECT_ID": "1998-067XR", "EPOCH": "2025-12-10T01:53:33.064224", "MEAN_MOTION": 15.53848796, "ECCENTRICITY": 0.00036764, "INCLINATION": 51.6294, "RA_OF_ASC_NODE": 154.7721, "ARG_OF_PERICENTER": 173.0963, "MEAN_ANOMALY": 187.0078, "EPHEMERIS_TYPE": 0, "CLASSIFICATION_TYPE": "U", "NORAD_CAT_ID": 66052, "ELEMENT_SET_NO": 999, "REV_AT_EPOCH": 842, "BSTAR": 0.00070942813, "MEAN_MOTION_DOT": 0.00046287, "MEAN_MOTION_DDOT": 0}, "tle": {"line1": "1 66052U 98067XR  25344.07885491  .00046287  00000+0  70943-3 0  9991", "line2": "2 66052  51.6294 154.7721 0003676 173.0963 187.0078 15.53848796  8427"}}, "geometry": {"type": "Point", "coordinates": [157.85978386461164, 9.462197920185657]}}, {"type": "Feature", "properties": {"norad_id": 66174, "name": "HTV-X1", "group": "stations", "lat": -45.795892757613984, "lon": 96.63619669435222, "alt_km": 421.5608199502876, "timestamp": "2025-12-10T23:33:11.640660+00:00", "meta": {"OBJECT_NAME": "HTV-X1", "OBJECT_ID": "2025-241A", "EPOCH": "2025-12-10T13:00:09.919872", "MEAN_MOTION": 15.49478601, "ECCENTRICITY": 0.00033601, "INCLINATION": 51.6308, "RA_OF_ASC_NODE": 153.362, "ARG_OF_PERICENTER": 230.7092, "MEAN_ANOMALY": 129.3599, "EPHEMERIS_TYPE": 0, "CLASSIFICATION_TYPE": "U", "NORAD_CAT_ID": 66174, "ELEMENT_SET_NO": 999, "REV_AT_EPOCH": 51, "BSTAR": 0.0002844348, "MEAN_MOTION_DOT": 0.00015517, "MEAN_MOTION_DDOT": 0}, "tle": {"line1": "1 66174U 25241A   25344.54178148  .00015517  00000+0  28443-3 0  9996", "line2": "2 66174  51.6308 153.3620 0003360 230.7092 129.3599 15.49478601   513"}}, "geometry": {"type": "Point", "coordinates": [96.63619669435222, -45.795892757613984]}}, {"type": "Feature", "properties": {"norad_id": 66515, "name": "SZ-21 MODULE", "group": "stations", "lat": -28.550130201458845, "lon": -115.21085509259555, "alt_km": 379.4901122623778, "timestamp": "2025-12-10T23:33:11.640671+00:00", "meta": {"OBJECT_NAME": "SZ-21 MODULE", "OBJECT_ID": "2025-246C", "EPOCH": "2025-12-10T11:51:01.003968", "MEAN_MOTION": 15.62311534, "ECCENTRICITY": 0.00062785, "INCLINATION": 41.4772, "RA_OF_ASC_NODE": 29.7454, "ARG_OF_PERICENTER": 248.1298, "MEAN_ANOMALY": 111.8874, "EPHEMERIS_TYPE": 0, "CLASSIFICATION_TYPE": "U", "NORAD_CAT_ID": 66515, "ELEMENT_SET_NO": 999, "REV_AT_EPOCH": 409, "BSTAR": 0.00039110764, "MEAN_MOTION_DOT": 0.00035412, "MEAN_MOTION_DDOT": 0}, "tle": {"line1": "1 66515U 25246C   25344.49376162  .00035412  00000+0  39111-3 0  9990", "line2": "2 66515  41.4772  29.7454 0006278 248.1298 111.8874 15.62311534  4092"}}, "geometry": {"type": "Point", "coordinates": [-115.21085509259555, -28.550130201458845]}}, {"type": "Feature", "properties": {"norad_id": 66645, "name": "SHENZHOU-22", "group": "stations", "lat": -13.934179216313819, "lon": 11.06400317646252, "alt_km": 386.84402244277044, "timestamp": "2025-12-10T23:33:11.640680+00:00", "meta": {"OBJECT_NAME": "SHENZHOU-22", "OBJECT_ID": "2025-272A", "EPOCH": "2025-12-10T14:25:11.377632", "MEAN_MOTION": 15.59037498, "ECCENTRICITY": 0.00087682, "INCLINATION": 41.4683, "RA_OF_ASC_NODE": 29.6917, "ARG_OF_PERICENTER": 13.0632, "MEAN_ANOMALY": 347.0432, "EPHEMERIS_TYPE": 0, "CLASSIFICATION_TYPE": "U", "NORAD_CAT_ID": 66645, "ELEMENT_SET_NO": 999, "REV_AT_EPOCH": 26357, "BSTAR": 0.00043760673, "MEAN_MOTION_DOT": 0.00034963, "MEAN_MOTION_DDOT": 0}, "tle": {"line1": "1 66645U 25272A   25344.60082613  .00034963  00000+0  43761-3 0  9997", "line2": "2 66645  41.4683  29.6917 0008768  13.0632 347.0432 15.59037498263570"}}, "geometry": {"type": "Point", "coordinates": [11.06400317646252, -13.934179216313819]}}, {"type": "Feature", "properties": {"norad_id": 66664, "name": "SOYUZ-MS 28", "group": "stations", "lat": -45.79589190701073, "lon": 96.63619908286827, "alt_km": 421.56081998640093, "timestamp": "2025-12-10T23:33:11.640689+00:00", "meta": {"OBJECT_NAME": "SOYUZ-MS 28", "OBJECT_ID": "2025-275A", "EPOCH": "2025-12-10T13:00:09.919872", "MEAN_MOTION": 15.49478601, "ECCENTRICITY": 0.00033601, "INCLINATION": 51.6308, "RA_OF_ASC_NODE": 153.362, "ARG_OF_PERICENTER": 230.7092, "MEAN_ANOMALY": 129.3599, "EPHEMERIS_TYPE": 0, "CLASSIFICATION_TYPE": "U", "NORAD_CAT_ID": 66664, "ELEMENT_SET_NO": 999, "REV_AT_EPOCH": 128, "BSTAR": 0.0002844348, "MEAN_MOTION_DOT": 0.00015517, "MEAN_MOTION_DDOT": 0}, "tle": {"line1": "1 66664U 25275A   25344.54178148  .00015517  00000+0  28443-3 0  9997", "line2": "2 66664  51.6308 153.3620 0003360 230.7092 129.3599 15.49478601  1282"}}, "geometry": {"type": "Point", "coordinates": [96.63619908286827, -45.79589190701073]}}, {"type": "Feature", "properties": {"norad_id": 66906, "name": "1998-067XS", "group": "stations", "lat": -32.22001162708575, "lon": 121.18068514796514, "alt_km": 420.7413101117727, "timestamp": "2025-12-10T23:33:11.640698+00:00", "meta": {"OBJECT_NAME": "1998-067XS", "OBJECT_ID": "1998-067XS", "EPOCH": "2025-12-10T00:31:58.659744", "MEAN_MOTION": 15.50350034, "ECCENTRICITY": 0.0003912, "INCLINATION": 51.6303, "RA_OF_ASC_NODE": 155.8936, "ARG_OF_PERICENTER": 190.7132, "MEAN_ANOMALY": 169.3774, "EPHEMERIS_TYPE": 0, "CLASSIFICATION_TYPE": "U", "NORAD_CAT_ID": 66906, "ELEMENT_SET_NO": 999, "REV_AT_EPOCH": 119, "BSTAR": 0.00063423893, "MEAN_MOTION_DOT": 0.00036365, "MEAN_MOTION_DDOT": 0}, "tle": {"line1": "1 66906U 98067XS  25344.02220671  .00036365  00000+0  63424-3 0  9999", "line2": "2 66906  51.6303 155.8936 0003912 190.7132 169.3774 15.50350034  1196"}}, "geometry": {"type": "Point", "coordinates": [121.18068514796514, -32.22001162708575]}}, {"type": "Feature", "properties": {"norad_id": 66907, "name": "1998-067XT", "group": "stations", "lat": -25.059804663360268, "lon": 129.37032102949797, "alt_km": 418.1371391346129, "timestamp": "2025-12-10T23:33:11.640708+00:00", "meta": {"OBJECT_NAME": "1998-067XT", "OBJECT_ID": "1998-067XT", "EPOCH": "2025-12-09T12:07:37.114752", "MEAN_MOTION": 15.50864429, "ECCENTRICITY": 0.00048036, "INCLINATION": 51.6307, "RA_OF_ASC_NODE": 158.4423, "ARG_OF_PERICENTER": 208.5081, "MEAN_ANOMALY": 151.5646, "EPHEMERIS_TYPE": 0, "CLASSIFICATION_TYPE": "U", "NORAD_CAT_ID": 66907, "ELEMENT_SET_NO": 999, "REV_AT_EPOCH": 111, "BSTAR": 0.0012921241, "MEAN_MOTION_DOT": 0.00076342, "MEAN_MOTION_DDOT": 0}, "tle": {"line1": "1 66907U 98067XT  25343.50529068  .00076342  00000+0  12921-2 0  9998", "line2": "2 66907  51.6307 158.4423 0004803 208.5081 151.5646 15.50864429  1113"}}, "geometry": {"type": "Point", "coordinates": [129.37032102949797, -25.059804663360268]}}, {"type": "Feature", "properties": {"norad_id": 66908, "name": "1998-067XU", "group": "stations", "lat": -23.989879966126985, "lon": 130.46754597843116, "alt_km": 417.8637153621521, "timestamp": "2025-12-10T23:33:11.640717+00:00", "meta": {"OBJECT_NAME": "1998-067XU", "OBJECT_ID": "1998-067XU", "EPOCH": "2025-12-10T14:24:36.801216", "MEAN_MOTION": 15.51106152, "ECCENTRICITY": 0.00048077, "INCLINATION": 51.6304, "RA_OF_ASC_NODE": 153.0048, "ARG_OF_PERICENTER": 213.3115, "MEAN_ANOMALY": 146.7573, "EPHEMERIS_TYPE": 0, "CLASSIFICATION_TYPE": "U", "NORAD_CAT_ID": 66908, "ELEMENT_SET_NO": 999, "REV_AT_EPOCH": 128, "BSTAR": 0.0015174275, "MEAN_MOTION_DOT": 0.00090678, "MEAN_MOTION_DDOT": 0}, "tle": {"line1": "1 66908U 98067XU  25344.60042594  .00090678  00000+0  15174-2 0  9996", "line2": "2 66908  51.6304 153.0048 0004807 213.3115 146.7573 15.51106152  1287"}}, "geometry": {"type": "Point", "coordinates": [130.46754597843116, -23.989879966126985]}}, {"type": "Feature", "properties": {"norad_id": 66909, "name": "SILVERSAT", "group": "stations", "lat": -22.956105228794428, "lon": 131.50169481847854, "alt_km": 417.39403875171865, "timestamp": "2025-12-10T23:33:11.640726+00:00", "meta": {"OBJECT_NAME": "SILVERSAT", "OBJECT_ID": "1998-067XV", "EPOCH": "2025-12-10T14:24:17.076960", "MEAN_MOTION": 15.51201749, "ECCENTRICITY": 0.00046642, "INCLINATION": 51.6305, "RA_OF_ASC_NODE": 153.0034, "ARG_OF_PERICENTER": 216.0058, "MEAN_ANOMALY": 144.0618, "EPHEMERIS_TYPE": 0, "CLASSIFICATION_TYPE": "U", "NORAD_CAT_ID": 66909, "ELEMENT_SET_NO": 999, "REV_AT_EPOCH": 128, "BSTAR": 0.0015461783, "MEAN_MOTION_DOT": 0.00092744, "MEAN_MOTION_DDOT": 0}, "tle": {"line1": "1 66909U 98067XV  25344.60019765  .00092744  00000+0  15462-2 0  9997", "line2": "2 66909  51.6305 153.0034 0004664 216.0058 144.0618 15.51201749  1280"}}, "geometry": {"type": "Point", "coordinates": [131.50169481847854, -22.956105228794428]}}, {"type": "Feature", "properties": {"norad_id": 66910, "name": "1998-067XW", "group": "stations", "lat": -17.38922475627794, "lon": 136.72809025950863, "alt_km": 418.02971798733233, "timestamp": "2025-12-10T23:33:11.640736+00:00", "meta": {"OBJECT_NAME": "1998-067XW", "OBJECT_ID": "1998-067XW", "EPOCH": "2025-12-10T11:16:54.563808", "MEAN_MOTION": 15.51350337, "ECCENTRICITY": 0.00055419, "INCLINATION": 51.6299, "RA_OF_ASC_NODE": 153.6351, "ARG_OF_PERICENTER": 197.1967, "MEAN_ANOMALY": 162.8836, "EPHEMERIS_TYPE": 0, "CLASSIFICATION_TYPE": "U", "NORAD_CAT_ID": 66910, "ELEMENT_SET_NO": 999, "REV_AT_EPOCH": 126, "BSTAR": 0.0013818348, "MEAN_MOTION_DOT": 0.00083191, "MEAN_MOTION_DDOT": 0}, "tle": {"line1": "1 66910U 98067XW  25344.47007597  .00083191  00000+0  13818-2 0  9993", "line2": "2 66910  51.6299 153.6351 0005541 197.1967 162.8836 15.51350337  1261"}}, "geometry": {"type": "Point", "coordinates": [136.72809025950863, -17.38922475627794]}}]}